{
"type": "FeatureCollection",
"name": "corridor_risk",
"crs": { "type": "name", "properties": { "name": "urn:ogc:def:crs:EPSG::32633" } },
"features": [
{ "type": "Feature", "properties": { "line_id": 0, "segment_id": "0_0020", "km_start": 5.0, "km_end": 5.25, "corridor_area_m2": 17500.0, "n_pixels": 175, "valid_fraction": 1.0, "ndvi_mean": 0.629, "ndvi_p90": 0.92, "veg_fraction": 0.6286, "growth_fraction": 0.9029, "risk_score": 0.8175, "risk_class": "high", "rank": 1 }, "geometry": { "type": "Polygon", "coordinates": [ [ [ 429959.789171128359158, 5787786.191523347049952 ], [ 429986.545915176800918, 5787721.507084352895617 ], [ 429755.53006162767997, 5787625.947284179739654 ], [ 429728.77331757923821, 5787690.631723173893988 ], [ 429959.789171128359158, 5787786.191523347049952 ] ] ] } },
{ "type": "Feature", "properties": { "line_id": 0, "segment_id": "0_0009", "km_start": 2.25, "km_end": 2.5, "corridor_area_m2": 17500.0, "n_pixels": 170, "valid_fraction": 1.0, "ndvi_mean": 0.6477, "ndvi_p90": 0.92, "veg_fraction": 0.6176, "growth_fraction": 0.6588, "risk_score": 0.7276, "risk_class": "high", "rank": 2 }, "geometry": { "type": "Polygon", "coordinates": [ [ [ 427353.472806497185957, 5786601.731721075251698 ], [ 427354.021144334110431, 5786601.999926681630313 ], [ 427454.045556522731204, 5786649.84797874931246 ], [ 427484.25272801175015, 5786586.701111917383969 ], [ 427384.503654190979432, 5786538.984771741554141 ], [ 427260.342622330470476, 5786476.906993732787669 ], [ 427229.03877516760258, 5786539.51744935195893 ], [ 427353.472806497185957, 5786601.731721075251698 ] ] ] } },
{ "type": "Feature", "properties": { "line_id": 0, "segment_id": "0_0012", "km_start": 3.0, "km_end": 3.25, "corridor_area_m2": 17500.0, "n_pixels": 176, "valid_fraction": 1.0, "ndvi_mean": 0.5182, "ndvi_p90": 0.92, "veg_fraction": 0.5341, "growth_fraction": 0.5341, "risk_score": 0.6506, "risk_class": "high", "rank": 3 }, "geometry": { "type": "Polygon", "coordinates": [ [ [ 428130.619129717058968, 5786973.496244703419507 ], [ 428160.826301206077915, 5786910.349377871491015 ], [ 427935.301776807988063, 5786802.466622553765774 ], [ 427905.094605318969116, 5786865.613489385694265 ], [ 428130.619129717058968, 5786973.496244703419507 ] ] ] } },
{ "type": "Feature", "properties": { "line_id": 0, "segment_id": "0_0008", "km_start": 2.0, "km_end": 2.25, "corridor_area_m2": 17500.0, "n_pixels": 168, "valid_fraction": 1.0, "ndvi_mean": 0.5465, "ndvi_p90": 0.92, "veg_fraction": 0.3512, "growth_fraction": 0.7083, "risk_score": 0.6384, "risk_class": "high", "rank": 4 }, "geometry": { "type": "Polygon", "coordinates": [ [ [ 427229.038775167777203, 5786539.51744935195893 ], [ 427260.342622330295853, 5786476.906993732787669 ], [ 427036.733852262434084, 5786365.107539581134915 ], [ 427005.430005099915434, 5786427.717995200306177 ], [ 427229.038775167777203, 5786539.51744935195893 ] ] ] } },
{ "type": "Feature", "properties": { "line_id": 0, "segment_id": "0_0019", "km_start": 4.75, "km_end": 5.0, "corridor_area_m2": 17500.0, "n_pixels": 175, "valid_fraction": 1.0, "ndvi_mean": 0.3918, "ndvi_p90": 0.6115, "veg_fraction": 0.2857, "growth_fraction": 0.3029, "risk_score": 0.3673, "risk_class": "medium", "rank": 5 }, "geometry": { "type": "Polygon", "coordinates": [ [ [ 429728.773317579354625, 5787690.631723173893988 ], [ 429755.530061627563555, 5787625.947284179739654 ], [ 429524.514208078500815, 5787530.387484007515013 ], [ 429497.757464030291885, 5787595.071923001669347 ], [ 429728.773317579354625, 5787690.631723173893988 ] ] ] } },
{ "type": "Feature", "properties": { "line_id": 0, "segment_id": "0_0023", "km_start": 5.75, "km_end": 6.0, "corridor_area_m2": 17500.0, "n_pixels": 175, "valid_fraction": 1.0, "ndvi_mean": 0.3791, "ndvi_p90": 0.4913, "veg_fraction": 0.0, "growth_fraction": 0.5314, "risk_score": 0.29, "risk_class": "low", "rank": 6 }, "geometry": { "type": "Polygon", "coordinates": [ [ [ 430553.781893894716632, 5788031.896850575692952 ], [ 430554.81666787766153, 5788032.305746898055077 ], [ 430655.123836598591879, 5788070.110607598908246 ], [ 430679.811032680911012, 5788004.608375960029662 ], [ 430580.024501014384441, 5787966.999738635495305 ], [ 430448.57762227486819, 5787912.626684697344899 ], [ 430421.820878226659261, 5787977.311123691499233 ], [ 430553.781893894716632, 5788031.896850575692952 ] ] ] } },
{ "type": "Feature", "properties": { "line_id": 0, "segment_id": "0_0021", "km_start": 5.25, "km_end": 5.5, "corridor_area_m2": 17500.0, "n_pixels": 175, "valid_fraction": 1.0, "ndvi_mean": 0.3353, "ndvi_p90": 0.6101, "veg_fraction": 0.1314, "growth_fraction": 0.1314, "risk_score": 0.245, "risk_class": "low", "rank": 7 }, "geometry": { "type": "Polygon", "coordinates": [ [ [ 430190.805024677596521, 5787881.751323519274592 ], [ 430217.56176872580545, 5787817.066884525120258 ], [ 429986.545915176684503, 5787721.507084352895617 ], [ 429959.789171128475573, 5787786.191523347049952 ], [ 430190.805024677596521, 5787881.751323519274592 ] ] ] } },
{ "type": "Feature", "properties": { "line_id": 0, "segment_id": "0_0015", "km_start": 3.75, "km_end": 4.0, "corridor_area_m2": 17500.0, "n_pixels": 176, "valid_fraction": 1.0, "ndvi_mean": 0.3581, "ndvi_p90": 0.5175, "veg_fraction": 0.0114, "growth_fraction": 0.3466, "risk_score": 0.2393, "risk_class": "low", "rank": 8 }, "geometry": { "type": "Polygon", "coordinates": [ [ [ 428812.388729999714997, 5787287.97009807638824 ], [ 428841.040757225418929, 5787224.102568486705422 ], [ 428612.942437263205647, 5787121.7738998234272 ], [ 428584.290410037501715, 5787185.641429413110018 ], [ 428812.388729999714997, 5787287.97009807638824 ] ] ] } },
{ "type": "Feature", "properties": { "line_id": 0, "segment_id": "0_0026", "km_start": 6.5, "km_end": 6.75, "corridor_area_m2": 17500.0, "n_pixels": 175, "valid_fraction": 1.0, "ndvi_mean": 0.3219, "ndvi_p90": 0.5154, "veg_fraction": 0.0, "growth_fraction": 0.1657, "risk_score": 0.1706, "risk_class": "low", "rank": 9 }, "geometry": { "type": "Polygon", "coordinates": [ [ [ 431356.933461292996071, 5788334.616279913112521 ], [ 431381.62065737566445, 5788269.114048274233937 ], [ 431147.684115810785443, 5788180.945490836165845 ], [ 431122.996919728117064, 5788246.447722475044429 ], [ 431356.933461292996071, 5788334.616279913112521 ] ] ] } },
{ "type": "Feature", "properties": { "line_id": 0, "segment_id": "0_0025", "km_start": 6.25, "km_end": 6.5, "corridor_area_m2": 17500.0, "n_pixels": 174, "valid_fraction": 1.0, "ndvi_mean": 0.2987, "ndvi_p90": 0.3101, "veg_fraction": 0.0345, "growth_fraction": 0.0517, "risk_score": 0.0712, "risk_class": "low", "rank": 10 }, "geometry": { "type": "Polygon", "coordinates": [ [ [ 431122.996919728117064, 5788246.447722475044429 ], [ 431147.684115810785443, 5788180.945490836165845 ], [ 430913.747574245964643, 5788092.776933398097754 ], [ 430889.060378163296264, 5788158.279165036976337 ], [ 431122.996919728117064, 5788246.447722475044429 ] ] ] } },
{ "type": "Feature", "properties": { "line_id": 0, "segment_id": "0_0016", "km_start": 4.0, "km_end": 4.25, "corridor_area_m2": 17500.0, "n_pixels": 174, "valid_fraction": 1.0, "ndvi_mean": 0.2889, "ndvi_p90": 0.3219, "veg_fraction": 0.0, "growth_fraction": 0.0, "risk_score": 0.0435, "risk_class": "low", "rank": 11 }, "geometry": { "type": "Polygon", "coordinates": [ [ [ 429040.487049961870071, 5787390.298766739666462 ], [ 429069.139077187574003, 5787326.431237149983644 ], [ 428841.040757225418929, 5787224.102568486705422 ], [ 428812.388729999714997, 5787287.97009807638824 ], [ 429040.487049961870071, 5787390.298766739666462 ] ] ] } },
{ "type": "Feature", "properties": { "line_id": 0, "segment_id": "0_0014", "km_start": 3.5, "km_end": 3.75, "corridor_area_m2": 17500.0, "n_pixels": 175, "valid_fraction": 1.0, "ndvi_mean": 0.2842, "ndvi_p90": 0.314, "veg_fraction": 0.0, "growth_fraction": 0.0057, "risk_score": 0.0427, "risk_class": "low", "rank": 12 }, "geometry": { "type": "Polygon", "coordinates": [ [ [ 428420.032989614002872, 5787111.941341600380838 ], [ 428420.810561745776795, 5787112.301672979258001 ], [ 428584.290410037443507, 5787185.641429413110018 ], [ 428612.942437263263855, 5787121.7738998234272 ], [ 428449.853580963041168, 5787048.609548846259713 ], [ 428386.35082560434239, 5787018.232133189216256 ], [ 428356.143654114974197, 5787081.379000021144748 ], [ 428420.032989614002872, 5787111.941341600380838 ] ] ] } },
{ "type": "Feature", "properties": { "line_id": 0, "segment_id": "0_0031", "km_start": 7.75, "km_end": 8.0, "corridor_area_m2": 17500.0, "n_pixels": 174, "valid_fraction": 1.0, "ndvi_mean": 0.2898, "ndvi_p90": 0.3146, "veg_fraction": 0.0, "growth_fraction": 0.0, "risk_score": 0.0409, "risk_class": "low", "rank": 13 }, "geometry": { "type": "Polygon", "coordinates": [ [ [ 432537.766482708684634, 5788747.630671765655279 ], [ 432560.414772700227331, 5788681.395824739709496 ], [ 432323.861747610091697, 5788600.50907476991415 ], [ 432301.213457618549, 5788666.743921795859933 ], [ 432537.766482708684634, 5788747.630671765655279 ] ] ] } },
{ "type": "Feature", "properties": { "line_id": 0, "segment_id": "0_0029", "km_start": 7.25, "km_end": 7.5, "corridor_area_m2": 17500.0, "n_pixels": 173, "valid_fraction": 1.0, "ndvi_mean": 0.2866, "ndvi_p90": 0.3141, "veg_fraction": 0.0, "growth_fraction": 0.0, "risk_score": 0.0407, "risk_class": "low", "rank": 14 }, "geometry": { "type": "Polygon", "coordinates": [ [ [ 432064.660432528471574, 5788585.857171825133264 ], [ 432087.308722520014271, 5788519.622324799187481 ], [ 431850.755697429936845, 5788438.735574829392135 ], [ 431828.107407438394148, 5788504.970421855337918 ], [ 432064.660432528471574, 5788585.857171825133264 ] ] ] } },
{ "type": "Feature", "properties": { "line_id": 0, "segment_id": "0_0001", "km_start": 0.25, "km_end": 0.5, "corridor_area_m2": 17500.0, "n_pixels": 179, "valid_fraction": 1.0, "ndvi_mean": 0.2821, "ndvi_p90": 0.306, "veg_fraction": 0.0, "growth_fraction": 0.0, "risk_score": 0.0379, "risk_class": "low", "rank": 15 }, "geometry": { "type": "Polygon", "coordinates": [ [ [ 425666.342194179014768, 5785751.147003416903317 ], [ 425698.211361357418355, 5785688.822400062344968 ], [ 425475.623492232582066, 5785575.003945853561163 ], [ 425443.75432505417848, 5785637.328549208119512 ], [ 425666.342194179014768, 5785751.147003416903317 ] ] ] } },
{ "type": "Feature", "properties": { "line_id": 0, "segment_id": "0_0027", "km_start": 6.75, "km_end": 7.0, "corridor_area_m2": 17500.0, "n_pixels": 175, "valid_fraction": 1.0, "ndvi_mean": 0.274, "ndvi_p90": 0.3049, "veg_fraction": 0.0, "growth_fraction": 0.0, "risk_score": 0.0375, "risk_class": "low", "rank": 16 }, "geometry": { "type": "Polygon", "coordinates": [ [ [ 431590.870002857816871, 5788422.784837351180613 ], [ 431615.55719894048525, 5788357.282605712302029 ], [ 431381.62065737566445, 5788269.114048274233937 ], [ 431356.933461292996071, 5788334.616279913112521 ], [ 431590.870002857816871, 5788422.784837351180613 ] ] ] } },
{ "type": "Feature", "properties": { "line_id": 0, "segment_id": "0_0032", "km_start": 8.0, "km_end": 8.159, "corridor_area_m2": 11103.8, "n_pixels": 112, "valid_fraction": 1.0, "ndvi_mean": 0.2839, "ndvi_p90": 0.3051, "veg_fraction": 0.0, "growth_fraction": 0.0, "risk_score": 0.0375, "risk_class": "low", "rank": 17 }, "geometry": { "type": "Polygon", "coordinates": [ [ [ 432687.859811483125668, 5788798.953463144600391 ], [ 432710.50810147478478, 5788732.718616118654609 ], [ 432560.414772700285539, 5788681.395824739709496 ], [ 432537.766482708626427, 5788747.630671765655279 ], [ 432687.859811483125668, 5788798.953463144600391 ] ] ] } },
{ "type": "Feature", "properties": { "line_id": 0, "segment_id": "0_0002", "km_start": 0.5, "km_end": 0.75, "corridor_area_m2": 17500.0, "n_pixels": 172, "valid_fraction": 1.0, "ndvi_mean": 0.2753, "ndvi_p90": 0.3032, "veg_fraction": 0.0, "growth_fraction": 0.0, "risk_score": 0.0369, "risk_class": "low", "rank": 18 }, "geometry": { "type": "Polygon", "coordinates": [ [ [ 425888.930063303909265, 5785864.965457625687122 ], [ 425920.799230482312851, 5785802.640854271128774 ], [ 425698.211361357418355, 5785688.822400062344968 ], [ 425666.342194179014768, 5785751.147003416903317 ], [ 425888.930063303909265, 5785864.965457625687122 ] ] ] } },
{ "type": "Feature", "properties": { "line_id": 0, "segment_id": "0_0007", "km_start": 1.75, "km_end": 2.0, "corridor_area_m2": 17500.0, "n_pixels": 165, "valid_fraction": 1.0, "ndvi_mean": 0.2742, "ndvi_p90": 0.3027, "veg_fraction": 0.0, "growth_fraction": 0.0, "risk_score": 0.0367, "risk_class": "low", "rank": 19 }, "geometry": { "type": "Polygon", "coordinates": [ [ [ 427005.430005099799018, 5786427.717995200306177 ], [ 427036.733852262550499, 5786365.107539581134915 ], [ 426813.12508219468873, 5786253.308085428550839 ], [ 426781.821235031937249, 5786315.918541047722101 ], [ 427005.430005099799018, 5786427.717995200306177 ] ] ] } },
{ "type": "Feature", "properties": { "line_id": 0, "segment_id": "0_0017", "km_start": 4.25, "km_end": 4.5, "corridor_area_m2": 17500.0, "n_pixels": 174, "valid_fraction": 1.0, "ndvi_mean": 0.2856, "ndvi_p90": 0.3028, "veg_fraction": 0.0, "growth_fraction": 0.0, "risk_score": 0.0367, "risk_class": "low", "rank": 20 }, "geometry": { "type": "Polygon", "coordinates": [ [ [ 429268.585369924083352, 5787492.627435402944684 ], [ 429297.237397149787284, 5787428.759905813261867 ], [ 429069.139077187574003, 5787326.431237149983644 ], [ 429040.487049961870071, 5787390.298766739666462 ], [ 429268.585369924083352, 5787492.627435402944684 ] ] ] } },
{ "type": "Feature", "properties": { "line_id": 0, "segment_id": "0_0030", "km_start": 7.5, "km_end": 7.75, "corridor_area_m2": 17500.0, "n_pixels": 177, "valid_fraction": 1.0, "ndvi_mean": 0.2798, "ndvi_p90": 0.3019, "veg_fraction": 0.0, "growth_fraction": 0.0, "risk_score": 0.0364, "risk_class": "low", "rank": 21 }, "geometry": { "type": "Polygon", "coordinates": [ [ [ 432301.213457618432585, 5788666.743921795859933 ], [ 432323.861747610208113, 5788600.50907476991415 ], [ 432087.308722520130686, 5788519.622324799187481 ], [ 432064.660432528355159, 5788585.857171825133264 ], [ 432301.213457618432585, 5788666.743921795859933 ] ] ] } },
{ "type": "Feature", "properties": { "line_id": 0, "segment_id": "0_0024", "km_start": 6.0, "km_end": 6.25, "corridor_area_m2": 17500.0, "n_pixels": 176, "valid_fraction": 1.0, "ndvi_mean": 0.2762, "ndvi_p90": 0.3015, "veg_fraction": 0.0, "growth_fraction": 0.0, "risk_score": 0.0362, "risk_class": "low", "rank": 22 }, "geometry": { "type": "Polygon", "coordinates": [ [ [ 430889.060378163296264, 5788158.279165036976337 ], [ 430913.747574245964643, 5788092.776933398097754 ], [ 430679.811032681085635, 5788004.608375960029662 ], [ 430655.123836598417256, 5788070.110607598908246 ], [ 430889.060378163296264, 5788158.279165036976337 ] ] ] } },
{ "type": "Feature", "properties": { "line_id": 0, "segment_id": "0_0028", "km_start": 7.0, "km_end": 7.25, "corridor_area_m2": 17500.0, "n_pixels": 176, "valid_fraction": 1.0, "ndvi_mean": 0.2792, "ndvi_p90": 0.3014, "veg_fraction": 0.0, "growth_fraction": 0.0, "risk_score": 0.0362, "risk_class": "low", "rank": 23 }, "geometry": { "type": "Polygon", "coordinates": [ [ [ 431620.828513157845009, 5788434.075927739962935 ], [ 431621.847966203058604, 5788434.442235433496535 ], [ 431828.10740743833594, 5788504.970421855337918 ], [ 431850.755697429995053, 5788438.735574829392135 ], [ 431645.008817402180284, 5788368.382653172127903 ], [ 431615.557198940194212, 5788357.282605712302029 ], [ 431590.87000285810791, 5788422.784837351180613 ], [ 431620.828513157845009, 5788434.075927739962935 ] ] ] } },
{ "type": "Feature", "properties": { "line_id": 0, "segment_id": "0_0018", "km_start": 4.5, "km_end": 4.75, "corridor_area_m2": 17500.0, "n_pixels": 177, "valid_fraction": 1.0, "ndvi_mean": 0.2767, "ndvi_p90": 0.3012, "veg_fraction": 0.0, "growth_fraction": 0.0, "risk_score": 0.0361, "risk_class": "low", "rank": 24 }, "geometry": { "type": "Polygon", "coordinates": [ [ [ 429486.822407025843859, 5787590.532169920392334 ], [ 429487.770048615289852, 5787590.940624622628093 ], [ 429497.757464030932169, 5787595.071923001669347 ], [ 429524.51420807786053, 5787530.387484007515013 ], [ 429515.003624453034718, 5787526.453427289612591 ], [ 429297.237397149845492, 5787428.759905813261867 ], [ 429268.585369924025144, 5787492.627435402944684 ], [ 429486.822407025843859, 5787590.532169920392334 ] ] ] } },
{ "type": "Feature", "properties": { "line_id": 0, "segment_id": "0_0022", "km_start": 5.5, "km_end": 5.75, "corridor_area_m2": 17500.0, "n_pixels": 176, "valid_fraction": 1.0, "ndvi_mean": 0.2776, "ndvi_p90": 0.3008, "veg_fraction": 0.0, "growth_fraction": 0.0, "risk_score": 0.036, "risk_class": "low", "rank": 25 }, "geometry": { "type": "Polygon", "coordinates": [ [ [ 430421.820878226659261, 5787977.311123691499233 ], [ 430448.57762227486819, 5787912.626684697344899 ], [ 430217.56176872580545, 5787817.066884525120258 ], [ 430190.805024677596521, 5787881.751323519274592 ], [ 430421.820878226659261, 5787977.311123691499233 ] ] ] } },
{ "type": "Feature", "properties": { "line_id": 0, "segment_id": "0_0011", "km_start": 2.75, "km_end": 3.0, "corridor_area_m2": 17500.0, "n_pixels": 174, "valid_fraction": 1.0, "ndvi_mean": 0.2743, "ndvi_p90": 0.2971, "veg_fraction": 0.0, "growth_fraction": 0.0, "risk_score": 0.0347, "risk_class": "low", "rank": 26 }, "geometry": { "type": "Polygon", "coordinates": [ [ [ 427905.094605318910908, 5786865.613489385694265 ], [ 427935.30177680804627, 5786802.466622553765774 ], [ 427709.77725240989821, 5786694.58386723510921 ], [ 427679.570080920762848, 5786757.730734067037702 ], [ 427905.094605318910908, 5786865.613489385694265 ] ] ] } },
{ "type": "Feature", "properties": { "line_id": 0, "segment_id": "0_0013", "km_start": 3.25, "km_end": 3.5, "corridor_area_m2": 17500.0, "n_pixels": 176, "valid_fraction": 1.0, "ndvi_mean": 0.2771, "ndvi_p90": 0.2971, "veg_fraction": 0.0, "growth_fraction": 0.0, "risk_score": 0.0347, "risk_class": "low", "rank": 27 }, "geometry": { "type": "Polygon", "coordinates": [ [ [ 428356.14365411514882, 5787081.379000021144748 ], [ 428386.350825604167767, 5787018.232133189216256 ], [ 428160.826301206077915, 5786910.349377871491015 ], [ 428130.619129717058968, 5786973.496244703419507 ], [ 428356.14365411514882, 5787081.379000021144748 ] ] ] } },
{ "type": "Feature", "properties": { "line_id": 0, "segment_id": "0_0010", "km_start": 2.5, "km_end": 2.75, "corridor_area_m2": 17500.0, "n_pixels": 175, "valid_fraction": 1.0, "ndvi_mean": 0.2716, "ndvi_p90": 0.2961, "veg_fraction": 0.0, "growth_fraction": 0.0, "risk_score": 0.0343, "risk_class": "low", "rank": 28 }, "geometry": { "type": "Polygon", "coordinates": [ [ [ 427679.570080920821056, 5786757.730734067037702 ], [ 427709.777252409840003, 5786694.58386723510921 ], [ 427484.25272801175015, 5786586.701111917383969 ], [ 427454.045556522731204, 5786649.84797874931246 ], [ 427679.570080920821056, 5786757.730734067037702 ] ] ] } },
{ "type": "Feature", "properties": { "line_id": 0, "segment_id": "0_0006", "km_start": 1.5, "km_end": 1.75, "corridor_area_m2": 17500.0, "n_pixels": 168, "valid_fraction": 1.0, "ndvi_mean": 0.2732, "ndvi_p90": 0.2955, "veg_fraction": 0.0, "growth_fraction": 0.0, "risk_score": 0.0341, "risk_class": "low", "rank": 29 }, "geometry": { "type": "Polygon", "coordinates": [ [ [ 426781.821235032053664, 5786315.918541047722101 ], [ 426813.125082194572315, 5786253.308085428550839 ], [ 426589.516312126710545, 5786141.508631276898086 ], [ 426558.212464964191895, 5786204.119086896069348 ], [ 426781.821235032053664, 5786315.918541047722101 ] ] ] } },
{ "type": "Feature", "properties": { "line_id": 0, "segment_id": "0_0000", "km_start": 0.0, "km_end": 0.25, "corridor_area_m2": 17500.0, "n_pixels": 171, "valid_fraction": 1.0, "ndvi_mean": 0.2739, "ndvi_p90": 0.2944, "veg_fraction": 0.0, "growth_fraction": 0.0, "risk_score": 0.0337, "risk_class": "low", "rank": 30 }, "geometry": { "type": "Polygon", "coordinates": [ [ [ 425443.75432505417848, 5785637.328549208119512 ], [ 425475.623492232582066, 5785575.003945853561163 ], [ 425253.03562310768757, 5785461.185491644777358 ], [ 425221.166455929283984, 5785523.510094999335706 ], [ 425443.75432505417848, 5785637.328549208119512 ] ] ] } },
{ "type": "Feature", "properties": { "line_id": 0, "segment_id": "0_0005", "km_start": 1.25, "km_end": 1.5, "corridor_area_m2": 17500.0, "n_pixels": 168, "valid_fraction": 1.0, "ndvi_mean": 0.275, "ndvi_p90": 0.2945, "veg_fraction": 0.0, "growth_fraction": 0.0, "risk_score": 0.0337, "risk_class": "low", "rank": 31 }, "geometry": { "type": "Polygon", "coordinates": [ [ [ 426558.21246496407548, 5786204.119086896069348 ], [ 426589.516312126826961, 5786141.508631276898086 ], [ 426365.907542059023399, 5786029.70917712431401 ], [ 426334.603694896271918, 5786092.319632743485272 ], [ 426558.21246496407548, 5786204.119086896069348 ] ] ] } },
{ "type": "Feature", "properties": { "line_id": 0, "segment_id": "0_0004", "km_start": 1.0, "km_end": 1.25, "corridor_area_m2": 17500.0, "n_pixels": 171, "valid_fraction": 1.0, "ndvi_mean": 0.2704, "ndvi_p90": 0.2933, "veg_fraction": 0.0, "growth_fraction": 0.0, "risk_score": 0.0333, "risk_class": "low", "rank": 32 }, "geometry": { "type": "Polygon", "coordinates": [ [ [ 426287.178301209409256, 5786068.606379333883524 ], [ 426287.460961217293516, 5786068.749305466189981 ], [ 426334.603694896271918, 5786092.319632743485272 ], [ 426365.907542059023399, 5786029.70917712431401 ], [ 426318.906461722042877, 5786006.209673394449055 ], [ 426143.387099607207347, 5785916.459308478981256 ], [ 426111.517932428687345, 5785978.783911833539605 ], [ 426287.178301209409256, 5786068.606379333883524 ] ] ] } },
{ "type": "Feature", "properties": { "line_id": 0, "segment_id": "0_0003", "km_start": 0.75, "km_end": 1.0, "corridor_area_m2": 17500.0, "n_pixels": 179, "valid_fraction": 1.0, "ndvi_mean": 0.2711, "ndvi_p90": 0.2909, "veg_fraction": 0.0, "growth_fraction": 0.0, "risk_score": 0.0325, "risk_class": "low", "rank": 33 }, "geometry": { "type": "Polygon", "coordinates": [ [ [ 426111.517932428803761, 5785978.783911833539605 ], [ 426143.387099607090931, 5785916.459308478981256 ], [ 425920.799230482254643, 5785802.640854271128774 ], [ 425888.930063303967472, 5785864.965457625687122 ], [ 426111.517932428803761, 5785978.783911833539605 ] ] ] } }
]
}
